NORAD_CAT_ID,OBJECT_NAME,OBJECT_TYPE,EPOCH,MEAN_MOTION,ECCENTRICITY,INCLINATION,RA_OF_ASC_NODE,ARG_OF_PERICENTER,MEAN_ANOMALY,BSTAR,MEAN_MOTION_DOT,MEAN_MOTION_DDOT,TLE_LINE0,TLE_LINE1,TLE_LINE2,SEMIMAJOR_AXIS,PERIOD,APOGEE,PERIGEE,DECAYED
53918.0,STARLINK-5012,PAYLOAD,2024-02-03 11:13:13,15.08774531,0.0001586,53.217,149.2459,112.1018,248.0143,0.0009371,0.00014631,0.0,0 STARLINK-5012,1 53918U 22119AJ  24034.46751475  .00014631  00000-0  93710-3 0  9991,2 53918  53.2170 149.2459 0001586 112.1018 248.0143 15.08774531 75885,6918.081,95.442,541.043,538.848,0.0
53918.0,STARLINK-5012,PAYLOAD,2024-02-03 12:48:36,15.08836697,0.0001608,53.2161,148.9472,91.8757,268.2419,5.4606e-05,5.81e-06,0.0,0 STARLINK-5012,1 53918U 22119AJ  24034.53375130  .00000581  00000-0  54606-4 0  9990,2 53918  53.2161 148.9472 0001608  91.8757 268.2419 15.08836697 76315,6917.89,95.438,540.868,538.643,0.0
53918.0,STARLINK-5012,PAYLOAD,2024-02-03 14:23:59,15.08836198,0.0001577,53.2163,148.6503,87.8842,272.233,4.8131e-05,4.78e-06,0.0,0 STARLINK-5012,1 53918U 22119AJ  24034.59999178  .00000478  00000-0  48131-4 0  9991,2 53918  53.2163 148.6503 0001577  87.8842 272.2330 15.08836198 75901,6917.892,95.438,540.848,538.666,0.0
53918.0,STARLINK-5012,PAYLOAD,2024-02-04 14:14:45,15.08845564,0.0001546,53.2177,144.1883,102.1944,257.9221,4.5696e-05,4.39e-06,0.0,0 STARLINK-5012,1 53918U 22119AJ  24035.59358570  .00000439  00000-0  45696-4 0  9997,2 53918  53.2177 144.1883 0001546 102.1944 257.9221 15.08845564 76477,6917.863,95.437,540.798,538.659,0.0
53918.0,STARLINK-5012,PAYLOAD,2024-02-05 12:30:10,15.08839109,0.0001573,53.2181,140.0257,107.565,252.5514,8.7986e-05,1.113e-05,0.0,0 STARLINK-5012,1 53918U 22119AJ  24036.52094970  .00001113  00000-0  87986-4 0  9990,2 53918  53.2181 140.0257 0001573 107.5650 252.5514 15.08839109 76198,6917.883,95.438,540.836,538.66,0.0
53918.0,STARLINK-5012,PAYLOAD,2024-02-05 14:05:33,15.08841465,0.0001527,53.2179,139.7301,106.7091,253.4069,0.00011264,1.505e-05,0.0,0 STARLINK-5012,1 53918U 22119AJ  24036.58718774  .00001505  00000-0  11264-3 0  9991,2 53918  53.2179 139.7301 0001527 106.7091 253.4069 15.08841465 76620,6917.876,95.437,540.797,538.685,0.0
53918.0,STARLINK-5012,PAYLOAD,2024-02-06 13:56:20,15.0884339,0.0001176,53.2169,135.2689,90.1454,269.9673,0.00010282,1.349e-05,0.0,0 STARLINK-5012,1 53918U 22119AJ  24037.58078830  .00001349  00000-0  10282-3 0  9999,2 53918  53.2169 135.2689 0001176  90.1454 269.9673 15.08843390 76776,6917.87,95.437,540.549,538.921,0.0
53918.0,STARLINK-5012,PAYLOAD,2024-02-07 12:11:44,15.08840946,0.0001271,53.2177,131.1068,98.3683,261.7453,2.4909e-05,1.09e-06,0.0,0 STARLINK-5012,1 53918U 22119AJ  24038.50815260  .00000109  00000-0  24909-4 0  9993,2 53918  53.2177 131.1068 0001271  98.3683 261.7453 15.08840946 76490,6917.877,95.437,540.622,538.863,0.0
53918.0,STARLINK-5012,PAYLOAD,2024-02-08 12:02:31,15.08835788,0.0001312,53.2163,126.6451,89.3124,270.8019,2.4012e-05,9.4e-07,0.0,0 STARLINK-5012,1 53918U 22119AJ  24039.50175877  .00000094  00000-0  24012-4 0  9995,2 53918  53.2163 126.6451 0001312  89.3124 270.8019 15.08835788 76640,6917.893,95.438,540.666,538.851,0.0
53918.0,STARLINK-5012,PAYLOAD,2024-02-09 11:53:18,15.08842735,0.000173,53.2182,122.1845,105.5802,254.5382,0.00011919,1.609e-05,0.0,0 STARLINK-5012,1 53918U 22119AJ  24040.49535280  .00001609  00000-0  11919-3 0  9997,2 53918  53.2182 122.1845 0001730 105.5802 254.5382 15.08842735 76795,6917.872,95.437,540.934,538.54,0.0
53918.0,STARLINK-5012,PAYLOAD,2024-02-10 11:44:05,15.08844391,0.0001723,53.2186,117.7254,94.0702,266.0487,9.3983e-05,1.208e-05,0.0,0 STARLINK-5012,1 53918U 22119AJ  24041.48895472  .00001208  00000-0  93983-4 0  9996,2 53918  53.2186 117.7254 0001723  94.0702 266.0487 15.08844391 77364,6917.867,95.437,540.924,538.54,0.0
53918.0,STARLINK-5012,PAYLOAD,2024-02-11 11:34:52,15.08846192,0.0001913,53.2193,113.2668,102.2303,257.8903,0.0001031,1.353e-05,0.0,0 STARLINK-5012,1 53918U 22119AJ  24042.48255178  .00001353  00000-0  10310-3 0  9993,2 53918  53.2193 113.2668 0001913 102.2303 257.8903 15.08846192 77511,6917.861,95.437,541.05,538.403,0.0
53918.0,STARLINK-5012,PAYLOAD,2024-02-12 11:25:39,15.08849925,0.0001846,53.2193,108.8074,103.4383,256.6815,0.00011583,1.556e-05,0.0,0 STARLINK-5012,1 53918U 22119AJ  24043.47614690  .00001556  00000-0  11583-3 0  9999,2 53918  53.2193 108.8074 0001846 103.4383 256.6815 15.08849925 77244,6917.85,95.437,540.992,538.438,0.0
53918.0,STARLINK-5012,PAYLOAD,2024-02-13 11:16:27,15.08835648,0.0001676,53.2183,104.3434,100.5887,259.5294,-4.4207e-05,-9.91e-06,0.0,0 STARLINK-5012,1 53918U 22119AJ  24044.46976238 -.00000991  00000-0 -44207-4 0  9992,2 53918  53.2183 104.3434 0001676 100.5887 259.5294 15.08835648 77398,6917.894,95.438,540.918,538.599,0.0
53918.0,STARLINK-5012,PAYLOAD,2024-02-13 12:51:50,15.08835912,0.0001691,53.2186,104.0457,99.4911,260.6272,-4.1999e-05,-9.56e-06,0.0,0 STARLINK-5012,1 53918U 22119AJ  24044.53600274 -.00000956  00000-0 -41999-4 0  9990,2 53918  53.2186 104.0457 0001691  99.4911 260.6272 15.08835912 77825,6917.893,95.438,540.928,538.588,0.0
53918.0,STARLINK-5012,PAYLOAD,2024-02-13 20:48:46,15.08835967,0.0001622,53.2183,102.5569,96.0484,264.0693,1.5457e-05,-4.2e-07,0.0,0 STARLINK-5012,1 53918U 22119AJ  24044.86720211 -.00000042  00000-0  15457-4 0  9995,2 53918  53.2183 102.5569 0001622  96.0484 264.0693 15.08835967 77871,6917.893,95.438,540.88,538.636,0.0
53918.0,STARLINK-5012,PAYLOAD,2024-02-14 11:07:13,15.0885374,0.0001601,53.2176,99.8787,98.7584,261.3589,0.00012901,1.767e-05,0.0,0 STARLINK-5012,1 53918U 22119AJ  24045.46334773  .00001767  00000-0  12901-3 0  9990,2 53918  53.2176  99.8787 0001601  98.7584 261.3589 15.08853740 77547,6917.838,95.437,540.811,538.596,0.0
53918.0,STARLINK-5012,PAYLOAD,2024-02-14 12:42:35,15.08861475,0.0001528,53.2174,99.5827,110.5969,249.5187,0.00017483,2.497e-05,0.0,0 STARLINK-5012,1 53918U 22119AJ  24045.52957908  .00002497  00000-0  17483-3 0  9999,2 53918  53.2174  99.5827 0001528 110.5969 249.5187 15.08861475 77978,6917.815,95.436,540.737,538.623,0.0
53918.0,STARLINK-5012,PAYLOAD,2024-02-14 20:39:32,15.08835064,0.0001427,53.2179,98.0961,123.0941,237.0188,0.00010943,1.454e-05,0.0,0 STARLINK-5012,1 53918U 22119AJ  24045.86079773  .00001454  00000-0  10943-3 0  9997,2 53918  53.2179  98.0961 0001427 123.0941 237.0188 15.08835064 78028,6917.895,95.438,540.748,538.773,0.0
53918.0,STARLINK-5012,PAYLOAD,2024-02-15 10:58:02,15.08830651,0.0001637,53.2177,95.42,94.7193,265.3987,5.9347e-05,6.56e-06,0.0,0 STARLINK-5012,1 53918U 22119AJ  24046.45696796  .00000656  00000-0  59347-4 0  9998,2 53918  53.2177  95.4200 0001637  94.7193 265.3987 15.08830651 77699,6917.909,95.438,540.906,538.642,0.0
53918.0,STARLINK-5012,PAYLOAD,2024-02-15 20:30:20,15.08836809,0.0001592,53.2175,93.6355,96.6314,263.486,9.9304e-05,1.293e-05,0.0,0 STARLINK-5012,1 53918U 22119AJ  24046.85440444  .00001293  00000-0  99304-4 0  9994,2 53918  53.2175  93.6355 0001592  96.6314 263.4860 15.08836809 78178,6917.89,95.438,540.856,538.654,0.0
53918.0,STARLINK-5012,PAYLOAD,2024-02-16 12:24:10,15.08855739,0.0001568,53.2164,90.6605,100.046,260.0709,0.00013962,1.936e-05,0.0,0 STARLINK-5012,1 53918U 22119AJ  24047.51679296  .00001936  00000-0  13962-3 0  9996,2 53918  53.2164  90.6605 0001568 100.0460 260.0709 15.08855739 77858,6917.832,95.437,540.782,538.613,0.0
53918.0,STARLINK-5012,PAYLOAD,2024-02-17 09:04:12,15.08838492,0.000165,53.2163,86.7957,94.8247,265.2933,0.00020192,2.927e-05,0.0,0 STARLINK-5012,1 53918U 22119AJ  24048.37792624  .00002927  00000-0  20192-3 0  9996,2 53918  53.2163  86.7957 0001650  94.8247 265.2933 15.08838492 77985,6917.885,95.438,540.891,538.609,0.0
53918.0,STARLINK-5012,PAYLOAD,2024-02-17 12:14:58,15.08842298,0.000164,53.2162,86.2005,92.5504,267.5676,0.00017562,2.508e-05,0.0,0 STARLINK-5012,1 53918U 22119AJ  24048.51040396  .00002508  00000-0  17562-3 0  9996,2 53918  53.2162  86.2005 0001640  92.5504 267.5676 15.08842298 78421,6917.873,95.437,540.873,538.604,0.0
53918.0,STARLINK-5012,PAYLOAD,2024-02-18 12:05:45,15.08849206,0.0001718,53.2167,81.7399,91.0925,269.0264,0.00024126,3.555e-05,0.0,0 STARLINK-5012,1 53918U 22119AJ  24049.50400222  .00003555  00000-0  24126-3 0  9991,2 53918  53.2167  81.7399 0001718  91.0925 269.0264 15.08849206 78155,6917.852,95.437,540.906,538.529,0.0
53918.0,STARLINK-5012,PAYLOAD,2024-02-19 02:24:14,15.08839561,0.00017,53.2165,79.0616,86.9419,273.1768,0.00012347,1.677e-05,0.0,0 STARLINK-5012,1 53918U 22119AJ  24050.10016693  .00001677  00000-0  12347-3 0  9999,2 53918  53.2165  79.0616 0001700  86.9419 273.1768 15.08839561 78245,6917.882,95.438,540.923,538.571,0.0
53918.0,STARLINK-5012,PAYLOAD,2024-02-19 08:45:46,15.08844479,0.0001545,53.2165,77.8743,82.9722,277.1446,0.00019909,2.882e-05,0.0,0 STARLINK-5012,1 53918U 22119AJ  24050.36512516  .00002882  00000-0  19909-3 0  9992,2 53918  53.2165  77.8743 0001545  82.9722 277.1446 15.08844479 78704,6917.867,95.437,540.801,538.663,0.0
53918.0,STARLINK-5012,PAYLOAD,2024-02-19 18:18:05,15.08840305,0.0001433,53.2157,76.0906,79.7567,280.3587,9.927e-05,1.292e-05,0.0,0 STARLINK-5012,1 53918U 22119AJ  24050.76256675  .00001292  00000-0  99270-4 0  9991,2 53918  53.2157  76.0906 0001433  79.7567 280.3587 15.08840305 78766,6917.879,95.438,540.736,538.753,0.0
53918.0,STARLINK-5012,PAYLOAD,2024-02-20 08:36:34,15.08839573,0.0001591,53.2169,73.4186,96.2378,263.8795,1.9593e-05,2.4e-07,0.0,0 STARLINK-5012,1 53918U 22119AJ  24051.35872914  .00000024  00000-0  19593-4 0  9999,2 53918  53.2169  73.4186 0001591  96.2378 263.8795 15.08839573 78435,6917.882,95.438,540.847,538.646,0.0
53918.0,STARLINK-5012,PAYLOAD,2024-02-20 18:08:52,15.08842312,0.0001634,53.2173,71.6338,94.5327,265.5852,6.6757e-05,7.75e-06,0.0,0 STARLINK-5012,1 53918U 22119AJ  24051.75616837  .00000775  00000-0  66757-4 0  9990,2 53918  53.2173  71.6338 0001634  94.5327 265.5852 15.08842312 78913,6917.873,95.437,540.869,538.608,0.0
